OBJECT_NAME,OBJECT_ID,EPOCH,MEAN_MOTION,ECCENTRICITY,INCLINATION,RA_OF_ASC_NODE,ARG_OF_PERICENTER,MEAN_ANOMALY,EPHEMERIS_TYPE,CLASSIFICATION_TYPE,NORAD_CAT_ID,ELEMENT_SET_NO,REV_AT_EPOCH,BSTAR,MEAN_MOTION_DOT,MEAN_MOTION_DDOT
SKYSAT-C1,2016-040C,2026-06-13T01:08:39.997824,15.36234245,.00038184,96.9567,195.9918,66.4009,293.7637,0,U,41601,999,55723,.276532E-3,.9695E-4,0
LAPAN-A3,2016-040E,2026-06-13T06:35:56.462784,15.33081105,.0011331,97.1483,160.5490,38.8477,321.3578,0,U,41603,999,55421,.1087203E-3,.3405E-4,0
GAOFEN-3,2016-049A,2026-06-13T06:26:11.126112,14.42215674,.00013046,98.4012,172.1133,97.8813,262.2525,0,U,41727,999,51808,.81807678E-4,.226E-5,0
SKYSAT-C4,2016-058B,2026-06-13T00:03:43.100352,15.48461231,.00010937,96.9172,185.9501,124.5870,235.5485,0,U,41771,999,54482,.32253831E-3,.17056E-3,0
SKYSAT-C5,2016-058C,2026-06-13T01:27:27.802944,15.34414316,.00014818,97.0475,204.8851,344.6003,15.5196,0,U,41772,999,54311,.25224808E-3,.8333E-4,0
SKYSAT-C2,2016-058D,2026-06-13T07:13:22.129248,15.41986667,.00049465,97.0168,186.5421,78.8470,281.3334,0,U,41773,999,54445,.28585606E-3,.12107E-3,0
SKYSAT-C3,2016-058E,2026-06-13T01:58:55.760448,15.52370755,.00016534,96.9005,195.0877,85.7708,274.3734,0,U,41774,999,54547,.37670371E-3,.22907E-3,0
ALSAT-1B,2016-059C,2026-06-13T07:09:33.314400,14.72271851,.00078683,97.7751,173.2298,234.6839,125.3634,0,U,41785,999,52000,.49031555E-4,.263E-5,0
PATHFINDER 1,2016-059E,2026-06-13T06:00:38.316672,14.67659016,.00275076,97.8167,163.7043,216.4783,143.4549,0,U,41787,999,51913,.10072398E-3,.529E-5,0
SCATSAT 1,2016-059H,2026-06-13T03:43:49.864800,14.79517665,.00532696,98.1191,227.8798,260.8436,98.6746,0,U,41790,999,10099,.13729202E-3,.993E-5,0
GOKTURK 1A,2016-073A,2026-06-13T06:40:45.423264,14.62771665,.00014436,98.1261,59.0142,75.6335,284.5027,0,U,41875,999,50825,.68264102E-4,.301E-5,0
RESOURCESAT-2A,2016-074A,2026-06-13T06:29:02.010624,14.21614594,.00033671,98.7530,237.8064,91.2035,268.9528,0,U,41877,999,49374,.31545087E-4,.25E-6,0
CARTOSAT-2D,2017-008A,2026-06-13T06:32:29.820768,15.19307219,.00036271,97.4116,223.6511,245.9023,114.1832,0,U,41948,999,51698,.22453025E-3,.4673E-4,0
SENTINEL-2B,2017-013A,2026-06-13T06:59:37.391136,14.30815448,.00011895,98.5695,239.1207,87.7325,272.3994,0,U,42063,999,48408,-.7943153E-5,-.64E-6,0
CARTOSAT-2E,2017-036C,2026-06-13T06:58:00.488352,15.19228378,.00028469,97.4284,224.1565,338.9239,21.1878,0,U,42767,999,49755,.25117893E-3,.5223E-4,0
FORMOSAT-5,2017-049A,2026-06-13T06:14:16.899648,14.50897499,.00127035,98.2253,239.6568,95.1874,265.0771,0,U,42920,999,46610,.46666096E-4,.141E-5,0
SENTINEL-5P,2017-064A,2026-06-13T06:06:42.974784,14.19518406,.00009847,98.7926,106.4139,84.0101,276.1187,0,U,42969,999,44900,.35532412E-4,.31E-6,0
SKYSAT-C11,2017-068A,2026-06-13T03:20:02.539392,15.57694720,.00007743,97.4340,312.7944,88.6413,271.4931,0,U,42987,999,48261,.38742355E-3,.28641E-3,0
SKYSAT-C10,2017-068B,2026-06-13T07:33:21.483072,15.34577109,.00011583,97.4495,301.1244,94.1400,265.9975,0,U,42988,999,48176,.2783166E-3,.9244E-4,0
SKYSAT-C9,2017-068C,2026-06-12T21:21:14.588352,15.41459290,.0009202,97.4414,301.5892,146.5741,213.6088,0,U,42989,999,48209,.32352335E-3,.13484E-3,0
SKYSAT-C8,2017-068D,2026-06-12T23:11:47.131872,15.36896956,.00014875,97.4511,300.5566,97.1034,263.0380,0,U,42990,999,48166,.29039909E-3,.10396E-3,0
SKYSAT-C7,2017-068E,2026-06-13T06:51:11.431872,15.36853476,.00071674,97.4524,301.8690,117.7229,242.4743,0,U,42991,999,48177,.29091804E-3,.10408E-3,0
SKYSAT-C6,2017-068F,2026-06-12T21:46:24.248640,15.34139721,.00042268,97.4556,301.4711,148.6787,211.4708,0,U,42992,999,48166,.29112921E-3,.9542E-4,0
CARTOSAT-2F,2018-004A,2026-06-13T06:09:21.244032,15.19186186,.00004326,97.4793,223.9294,260.5915,99.5271,0,U,43111,999,46673,.2422274E-3,.5028E-4,0
GAOFEN-1 02,2018-031A,2026-06-13T07:12:01.652832,14.76450956,.00040666,98.0532,226.8378,43.3832,316.7697,0,U,43259,999,44212,.81518869E-4,.515E-5,0
GAOFEN-1 03,2018-031B,2026-06-13T06:40:36.428160,14.76463923,.00037978,98.0524,226.6749,86.9450,273.2194,0,U,43260,999,44211,.10287465E-3,.664E-5,0
GAOFEN-1 04,2018-031D,2026-06-13T07:43:11.481024,14.76472463,.00022454,98.0534,226.9084,86.1959,273.9507,0,U,43262,999,44211,.52511984E-4,.314E-5,0
SENTINEL-3B,2018-039A,2026-06-13T04:36:54.538560,14.26733805,.00007698,98.6249,231.7817,82.8273,277.2995,0,U,43437,999,42355,.60105319E-4,.102E-5,0
GAOFEN-5 01,2018-043A,2026-06-13T03:45:58.976640,14.60602744,.00030342,98.4568,135.6586,90.4173,269.7375,0,U,43461,999,43110,.68309607E-4,.283E-5,0
GAOFEN-6,2018-048A,2026-06-13T06:37:55.452864,14.76594042,.00115214,97.8550,227.1245,180.2035,179.9172,0,U,43484,999,43281,.99937358E-4,.648E-5,0
