SKYSAT-C1               
1 41601U 16040C   26164.04768516  .00009695  00000+0  27653-3 0  9993
2 41601  96.9567 195.9918 0003818  66.4009 293.7637 15.36234245557237
LAPAN-A3                
1 41603U 16040E   26164.27495906  .00003405  00000+0  10872-3 0  9998
2 41603  97.1483 160.5490 0011331  38.8477 321.3578 15.33081105554212
GAOFEN-3                
1 41727U 16049A   26164.26818433  .00000226  00000+0  81808-4 0  9993
2 41727  98.4012 172.1133 0001304  97.8813 262.2525 14.42215674518081
SKYSAT-C4               
1 41771U 16058B   26164.00258218  .00017056  00000+0  32254-3 0  9992
2 41771  96.9172 185.9501 0001093 124.5870 235.5485 15.48461231544825
SKYSAT-C5               
1 41772U 16058C   26164.06073846  .00008333  00000+0  25225-3 0  9999
2 41772  97.0475 204.8851 0001481 344.6003  15.5196 15.34414316543110
SKYSAT-C2               
1 41773U 16058D   26164.30095057  .00012107  00000+0  28586-3 0  9992
2 41773  97.0168 186.5421 0004946  78.8470 281.3334 15.41986667544458
SKYSAT-C3               
1 41774U 16058E   26164.08258982  .00022907  00000+0  37670-3 0  9999
2 41774  96.9005 195.0877 0001653  85.7708 274.3734 15.52370755545476
ALSAT-1B                
1 41785U 16059C   26164.29830225  .00000263  00000+0  49032-4 0  9998
2 41785  97.7751 173.2298 0007868 234.6839 125.3634 14.72271851520008
PATHFINDER 1            
1 41787U 16059E   26164.25044348  .00000529  00000+0  10072-3 0  9995
2 41787  97.8167 163.7043 0027507 216.4783 143.4549 14.67659016519137
SCATSAT 1               
1 41790U 16059H   26164.15543825  .00000993  00000+0  13729-3 0  9999
2 41790  98.1191 227.8798 0053269 260.8436  98.6746 14.79517665100999
GOKTURK 1A              
1 41875U 16073A   26164.27830351  .00000301  00000+0  68264-4 0  9993
2 41875  98.1261  59.0142 0001443  75.6335 284.5027 14.62771665508259
RESOURCESAT-2A          
1 41877U 16074A   26164.27016216  .00000025  00000+0  31545-4 0  9997
2 41877  98.7530 237.8064 0003367  91.2035 268.9528 14.21614594493744
CARTOSAT-2D             
1 41948U 17008A   26164.27256737  .00004673  00000+0  22453-3 0  9998
2 41948  97.4116 223.6511 0003627 245.9023 114.1832 15.19307219516986
SENTINEL-2B             
1 42063U 17013A   26164.29140499 -.00000064  00000+0 -79432-5 0  9995
2 42063  98.5695 239.1207 0001189  87.7325 272.3994 14.30815448484082
CARTOSAT-2E             
1 42767U 17036C   26164.29028343  .00005223  00000+0  25118-3 0  9994
2 42767  97.4284 224.1565 0002846 338.9239  21.1878 15.19228378497557
FORMOSAT-5              
1 42920U 17049A   26164.25991782  .00000141  00000+0  46666-4 0  9997
2 42920  98.2253 239.6568 0012703  95.1874 265.0771 14.50897499466105
SENTINEL-5P             
1 42969U 17064A   26164.25466406  .00000031  00000+0  35532-4 0  9995
2 42969  98.7926 106.4139 0000984  84.0101 276.1187 14.19518406449000
SKYSAT-C11              
1 42987U 17068A   26164.13891828  .00028641  00000+0  38742-3 0  9998
2 42987  97.4340 312.7944 0000774  88.6413 271.4931 15.57694720482611
SKYSAT-C10              
1 42988U 17068B   26164.31483198  .00009244  00000+0  27832-3 0  9992
2 42988  97.4495 301.1244 0001158  94.1400 265.9975 15.34577109481760
SKYSAT-C9               
1 42989U 17068C   26163.88975218  .00013484  00000+0  32352-3 0  9997
2 42989  97.4414 301.5892 0009202 146.5741 213.6088 15.41459290482093
SKYSAT-C8               
1 42990U 17068D   26163.96651773  .00010396  00000+0  29040-3 0  9994
2 42990  97.4511 300.5566 0001487  97.1034 263.0380 15.36896956481667
SKYSAT-C7               
1 42991U 17068E   26164.28554898  .00010408  00000+0  29092-3 0  9992
2 42991  97.4524 301.8690 0007167 117.7229 242.4743 15.36853476481776
SKYSAT-C6               
1 42992U 17068F   26163.90722510  .00009542  00000+0  29113-3 0  9990
2 42992  97.4556 301.4711 0004226 148.6787 211.4708 15.34139721481660
CARTOSAT-2F             
1 43111U 18004A   26164.25649588  .00005028  00000+0  24223-3 0  9999
2 43111  97.4793 223.9294 0000432 260.5915  99.5271 15.19186186466734
GAOFEN-1 02             
1 43259U 18031A   26164.30001913  .00000515  00000+0  81519-4 0  9990
2 43259  98.0532 226.8378 0004066  43.3832 316.7697 14.76450956442126
GAOFEN-1 03             
1 43260U 18031B   26164.27819940  .00000664  00000+0  10287-3 0  9993
2 43260  98.0524 226.6749 0003797  86.9450 273.2194 14.76463923442114
GAOFEN-1 04             
1 43262U 18031D   26164.32166066  .00000314  00000+0  52512-4 0  9995
2 43262  98.0534 226.9084 0002245  86.1959 273.9507 14.76472463442119
SENTINEL-3B             
1 43437U 18039A   26164.19229790  .00000102  00000+0  60105-4 0  9998
2 43437  98.6249 231.7817 0000769  82.8273 277.2995 14.26733805423551
GAOFEN-5 01             
1 43461U 18043A   26164.15693260  .00000283  00000+0  68310-4 0  9999
2 43461  98.4568 135.6586 0003034  90.4173 269.7375 14.60602744431100
GAOFEN-6                
1 43484U 18048A   26164.27633626  .00000648  00000+0  99937-4 0  9996
2 43484  97.8550 227.1245 0011521 180.2035 179.9172 14.76594042432817
